H1 CPF  1  DLR 2021 10 24 10  7972 technosat            
H2  1704205 6203    42829 2021 10 24 00 00 00 2021 10 31 00 00 00    60 1 1  0 0 0
H9
10 0 59512  64800.000000  0      -4763645.419      -4076468.373      -3065878.674
10 0 59512  64860.000000  0      -4963085.039      -4124011.416      -2656298.935
10 0 59512  64920.000000  0      -5141993.774      -4152562.425      -2235471.571
10 0 59512  64980.000000  0      -5299437.693      -4162172.286      -1805171.563
10 0 59512  65040.000000  0      -5434573.607      -4152979.740      -1367216.905
10 0 59512  65100.000000  0      -5546653.759      -4125210.257       -923460.839
10 0 59512  65160.000000  0      -5635030.098      -4079174.455       -475783.898
10 0 59512  65220.000000  0      -5699158.117      -4015266.126        -26085.772
10 0 59512  65280.000000  0      -5738600.205      -3933959.863        423723.006
10 0 59512  65340.000000  0      -5753028.479      -3835808.251        871729.501
10 0 59512  65400.000000  0      -5742227.035      -3721438.628       1316026.851
10 0 59512  65460.000000  0      -5706093.648      -3591549.465       1754722.709
10 0 59512  65520.000000  0      -5644640.905      -3446906.391       2185947.610
10 0 59512  65580.000000  0      -5557996.780      -3288337.908       2607863.217
10 0 59512  65640.000000  0      -5446404.649      -3116730.846       3018670.438
10 0 59512  65700.000000  0      -5310222.727      -2933025.538       3416617.390
10 0 59512  65760.000000  0      -5149922.928      -2738210.712       3800007.155
10 0 59512  65820.000000  0      -4966089.121      -2533318.144       4167205.241
10 0 59512  65880.000000  0      -4759414.819      -2319417.166       4516646.674
10 0 59512  65940.000000  0      -4530700.374      -2097609.055       4846842.720
10 0 59512  66000.000000  0      -4280849.691      -1869021.344       5156387.254
10 0 59512  66060.000000  0      -4010866.475      -1634802.067       5443962.760
10 0 59512  66120.000000  0      -3721850.015      -1396113.972       5708345.980
10 0 59512  66180.000000  0      -3414990.477      -1154128.653       5948413.144
10 0 59512  66240.000000  0      -3091563.740       -910020.724       6163144.705
10 0 59512  66300.000000  0      -2752925.818       -664962.015       6351629.607
10 0 59512  66360.000000  0      -2400506.907       -420115.858       6513068.977
10 0 59512  66420.000000  0      -2035805.115       -176631.542       6646779.316
10 0 59512  66480.000000  0      -1660379.941         64361.047       6752195.222
10 0 59512  66540.000000  0      -1275845.498        301756.673       6828871.684
10 0 59512  66600.000000  0       -883863.468        534479.850       6876485.853
10 0 59512  66660.000000  0       -486135.821        761489.745       6894838.320
10 0 59512  66720.000000  0        -84397.354        981784.859       6883853.870
10 0 59512  66780.000000  0        319591.933       1194407.473       6843581.763
10 0 59512  66840.000000  0        724054.638       1398447.878       6774195.522
10 0 59512  66900.000000  0       1127203.858       1593048.317       6675992.122
10 0 59512  66960.000000  0       1527251.129       1777406.597       6549390.726
10 0 59512  67020.000000  0       1922414.424       1950779.414       6394930.935
10 0 59512  67080.000000  0       2310926.135       2112485.372       6213270.578
10 0 59512  67140.000000  0       2691041.095       2261907.718       6005183.049
10 0 59512  67200.000000  0       3061044.597       2398496.733       5771554.094
10 0 59512  67260.000000  0       3419260.274       2521771.760       5513378.086
10 0 59512  67320.000000  0       3764057.828       2631322.907       5231753.845
10 0 59512  67380.000000  0       4093860.554       2726812.397       4927880.017
10 0 59512  67440.000000  0       4407152.715       2807975.567       4603050.061
10 0 59512  67500.000000  0       4702486.680       2874621.469       4258646.815
10 0 59512  67560.000000  0       4978489.964       2926633.157       3896136.753
10 0 59512  67620.000000  0       5233872.044       2963967.586       3517063.440
10 0 59512  67680.000000  0       5467430.317       2986654.896       3123040.704
10 0 59512  67740.000000  0       5678055.866       2994797.548       2715745.869
10 0 59512  67800.000000  0       5864738.958       2988569.133       2296912.461
10 0 59512  67860.000000  0       6026574.028       2968212.749       1868322.636
10 0 59512  67920.000000  0       6162764.175       2934039.019       1431799.370
10 0 59512  67980.000000  0       6272625.136       2886423.760        989198.443
10 0 59512  68040.000000  0       6355588.680       2825805.324        542400.268
10 0 59512  68100.000000  0       6411205.430       2752681.627         93301.643
10 0 59512  68160.000000  0       6439147.126       2667606.861       -356192.587
10 0 59512  68220.000000  0       6439208.193       2571187.886       -804177.847
10 0 59512  68280.000000  0       6411306.760       2464080.473      -1248757.973
10 0 59512  68340.000000  0       6355485.254       2346985.402      -1688053.335
10 0 59512  68400.000000  0       6271910.370       2220644.315      -2120209.003
10 0 59512  68460.000000  0       6160872.323       2085835.333      -2543402.739
10 0 59512  68520.000000  0       6022783.534       1943368.537      -2955852.683
10 0 59512  68580.000000  0       5858176.806       1794081.374      -3355824.847
10 0 59512  68640.000000  0       5667702.928       1638833.950      -3741640.363
10 0 59512  68700.000000  0       5452127.704       1478504.262      -4111682.440
10 0 59512  68760.000000  0       5212328.438       1313983.404      -4464402.940
10 0 59512  68820.000000  0       4949289.974       1146170.836      -4798328.548
10 0 59512  68880.000000  0       4664100.364        975969.679      -5112066.603
10 0 59512  68940.000000  0       4357946.092        804282.045      -5404310.595
10 0 59512  69000.000000  0       4032106.890        632004.442      -5673845.223
10 0 59512  69060.000000  0       3687950.227        460023.296      -5919551.089
10 0 59512  69120.000000  0       3326925.373        289210.595      -6140408.996
10 0 59512  69180.000000  0       2950557.178        120419.660      -6335503.735
10 0 59512  69240.000000  0       2560439.633        -45518.942      -6504027.472
10 0 59512  69300.000000  0       2158229.168       -207801.295      -6645282.715
10 0 59512  69360.000000  0       1745637.780       -365653.840      -6758684.875
10 0 59512  69420.000000  0       1324425.906       -518336.936      -6843764.502
10 0 59512  69480.000000  0        896394.999       -665148.183      -6900169.007
10 0 59512  69540.000000  0        463380.024       -805425.487      -6927663.872
10 0 59512  69600.000000  0         27241.883       -938549.927      -6926133.472
10 0 59512  69660.000000  0       -410140.255      -1063948.376      -6895581.541
10 0 59512  69720.000000  0       -846876.771      -1181095.899      -6836131.260
10 0 59512  69780.000000  0      -1281075.523      -1289517.890      -6748024.856
10 0 59512  69840.000000  0      -1710849.782      -1388791.967      -6631622.782
10 0 59512  69900.000000  0      -2134326.220      -1478549.597      -6487402.415
10 0 59512  69960.000000  0      -2549652.782      -1558477.421      -6315956.306
10 0 59512  70020.000000  0      -2955006.533      -1628318.338      -6117990.150
10 0 59512  70080.000000  0      -3348601.542      -1687872.346      -5894320.344
10 0 59512  70140.000000  0      -3728696.756      -1736997.104      -5645871.071
10 0 59512  70200.000000  0      -4093603.758      -1775608.179      -5373670.889
10 0 59512  70260.000000  0      -4441694.344      -1803679.022      -5078848.864
10 0 59512  70320.000000  0      -4771407.889      -1821240.636      -4762630.301
10 0 59512  70380.000000  0      -5081258.546      -1828380.974      -4426332.075
10 0 59512  70440.000000  0      -5369842.203      -1825244.048      -4071357.535
10 0 59512  70500.000000  0      -5635843.189      -1812028.749      -3699190.979
10 0 59512  70560.000000  0      -5878040.630      -1788987.378      -3311391.692
10 0 59512  70620.000000  0      -6095314.423      -1756423.884      -2909587.623
10 0 59512  70680.000000  0      -6286650.813      -1714691.832      -2495468.709
10 0 59512  70740.000000  0      -6451147.534      -1664192.085      -2070779.869
10 0 59512  70800.000000  0      -6588018.486      -1605370.252      -1637313.678
10 0 59512  70860.000000  0      -6696597.877      -1538713.894      -1196902.752
10 0 59512  70920.000000  0      -6776343.846      -1464749.486       -751411.900
10 0 59512  70980.000000  0      -6826841.500      -1384039.141       -302730.055
10 0 59512  71040.000000  0      -6847805.339      -1297177.127        147237.945
10 0 59512  71100.000000  0      -6839081.055      -1204786.239        596579.697
10 0 59512  71160.000000  0      -6800646.682      -1107514.020       1043383.644
10 0 59512  71220.000000  0      -6732613.096      -1006028.850       1485747.522
10 0 59512  71280.000000  0      -6635223.863       -901015.922       1921786.769
10 0 59512  71340.000000  0      -6508854.429       -793173.145       2349642.874
10 0 59512  71400.000000  0      -6354010.664       -683206.995       2767491.605
10 0 59512  71460.000000  0      -6171326.759       -571828.304       3173551.106
10 0 59512  71520.000000  0      -5961562.458       -459748.047       3566089.781
10 0 59512  71580.000000  0      -5725599.645       -347673.188       3943433.931
10 0 59512  71640.000000  0      -5464438.338       -236302.592       4303975.043
10 0 59512  71700.000000  0      -5179192.170       -126323.006       4646176.751
10 0 59512  71760.000000  0      -4871083.346        -18405.113       4968581.445
10 0 59512  71820.000000  0      -4541437.142         86800.292       5269816.501
10 0 59512  71880.000000  0      -4191675.948        188665.987       5548600.177
10 0 59512  71940.000000  0      -3823312.785        286591.811       5803747.082
99
